ONEWEB-0160             
1 48060U 21025U   23354.42605264  .00000082  00000+0  18968-3 0  9998
2 48060  87.8987 141.2936 0000871 142.4822 217.6368 13.13472517134131
ONEWEB-0163             
1 48061U 21025V   23354.48796360  .00000290  00000+0  75843-3 0  9999
2 48061  87.8993 141.2771 0001790  94.7452 265.3882 13.13468231134268
ONEWEB-0159             
1 48062U 21025W   23354.47684903  .00000700  00000+0  18816-2 0  9990
2 48062  87.8989 141.2655 0001766  93.3794 266.7537 13.13473758134185
ONEWEB-0164             
1 48063U 21025X   23354.84028266 -.00000086  00000+0 -27055-3 0  9991
2 48063  87.8991 141.2022 0001494 103.4362 256.6934 13.13469678134229
ONEWEB-0167             
1 48064U 21025Y   23354.48874287  .00000368  00000+0  97225-3 0  9991
2 48064  87.8993 141.2814 0001706  98.2463 261.8859 13.13465274134154
ONEWEB-0166             
1 48065U 21025Z   23354.43400371 -.00000131  00000+0 -39467-3 0  9990
2 48065  87.8991 141.2828 0001552  96.6455 263.4850 13.13469460134228
ONEWEB-0151             
1 48066U 21025AA  23354.81647143 -.00000237  00000+0 -68295-3 0  9991
2 48066  87.8993 141.2155 0001513 108.7549 251.3744 13.13467300134229
ONEWEB-0170             
1 48067U 21025AB  23354.82440349 -.00000328  00000+0 -93409-3 0  9998
2 48067  87.8989 141.2140 0001635 132.4206 227.7061 13.13470326134173
